NUSAT-49 (KLARA DAN VO*)
1 60500U 24149AJ  26068.79810190  .00012912  00000+0  43568-3 0  9991
2 60500  97.3807 150.7380 0001132 286.7761  73.3356 15.30828857 86935
STARLINK-32862          
1 62864U 25022L   26068.53769444  .00011000  00000+0  38389-3 0  9996
2 62864  53.1575 130.5473 0000611 156.5334 203.5695 15.30119489 61875
